OSCAR 7 (AO-7)          
1 07530U 74089B   26193.98991432 -.00000026  00000+0  12781-3 0  9999
2 07530 101.9904 207.5054 0012658  82.4551 304.9872 12.53698525363754
PHASE 3B (AO-10)        
1 14129U 83058B   26190.70523784  .00000106  00000+0  00000+0 0  9990
2 14129  25.9319 215.8523 6003352 121.8543 310.3469  2.05870648295953
UOSAT 2 (UO-11)         
1 14781U 84021B   26194.26346498  .00000744  00000+0  81145-4 0  9997
2 14781  97.8075 159.5502 0009195  96.7978 263.4286 14.90846236261010
LUSAT (LO-19)           
1 20442U 90005G   26193.29864192  .00000048  00000+0  33720-4 0  9998
2 20442  98.8847 215.7954 0012440 129.3206 230.9083 14.34130209905999
EYESAT A (AO-27)        
1 22825U 93061C   26194.15132456  .00000041  00000+0  32598-4 0  9992
2 22825  98.6869 261.5539 0008875  31.5428 328.6285 14.30948752710712
ITAMSAT (IO-26)         
1 22826U 93061D   26194.12298664  .00000033  00000+0  29299-4 0  9999
2 22826  98.6817 261.4457 0009085  15.3060 344.8396 14.31376322711027
RADIO ROSTO (RS15)      
1 23439U 94085A   26194.19057317 -.00000018  00000+0  68239-3 0  9992
2 23439  64.8159 261.1629 0156833 359.0766   0.9847 11.27583551298831
JAS-2 (FO-29)           
1 24278U 96046B   26193.52226945  .00000020  00000+0  54923-4 0  9992
2 24278  98.5221  38.9215 0350477  30.8650 331.2590 13.53275422476596
TECHSAT 1B (GO-32)      
1 25397U 98043D   26193.91376982  .00000023  00000+0  29958-4 0  9997
2 25397  99.0083 187.3229 0002130 118.0072 242.1321 14.24433105454997
ISS (ZARYA)             
1 25544U 98067A   26194.12129675  .00004316  00000+0  86456-4 0  9991
2 25544  51.6304 171.7447 0006685 289.3803  70.6462 15.48996109575778
PCSAT (NO-44)           
1 26931U 01043C   26193.93218526  .00000030  00000+0  42247-4 0  9991
2 26931  67.0492 177.6826 0005947 266.4002  93.6419 14.31964496294131
SAUDISAT 1C (SO-50)     
1 27607U 02058C   26193.91399671  .00000395  00000+0  64575-4 0  9990
2 27607  64.5517  49.3840 0074594 257.6999 101.5749 14.83095930268270
CUTE-1 (CO-55)          
1 27844U 03031E   26194.23954276  .00000158  00000+0  87036-4 0  9993
2 27844  98.6742 202.4711 0010799 107.7060 252.5299 14.24350794195386
CUBESAT XI-IV (CO-57)   
1 27848U 03031J   26193.53826736  .00000128  00000+0  75348-4 0  9998
2 27848  98.6772 201.4707 0010448 126.3839 233.8305 14.23633637194983
MOZHAETS 4 (RS22)       
1 27939U 03042A   26194.30048700  .00000418  00000+0  72512-4 0  9996
2 27939  98.3474  19.3986 0011062 179.2309 306.6469 14.73511591219399
CUBESAT XI-V            
1 28895U 05043F   26193.88190763  .00000741  00000+0  12440-3 0  9992
2 28895  98.3010 350.0479 0015184 122.0632 238.2052 14.72699028105532
SWISSCUBE               
1 35932U 09051B   26194.30368549  .00000495  00000+0  10730-3 0  9998
2 35932  98.4011 102.6448 0007765 124.1169 236.0769 14.62528711892976
BEESAT-1                
1 35933U 09051C   26193.71071439  .00000393  00000+0  88659-4 0  9995
2 35933  98.3939 101.6234 0005984 136.3628 223.8047 14.61759519892911
ITUPSAT1                
1 35935U 09051E   26192.97035851  .00000388  00000+0  90106-4 0  9996
2 35935  98.4023 100.0372 0007861 152.4089 207.7529 14.60475983892353
O/OREOS (USA 219)       
1 37224U 10062C   26193.97853780  .00001163  00000+0  11533-3 0  9991
2 37224  71.9695  21.9108 0013857   9.4460 350.6968 14.93846697120495
JUGNU                   
1 37839U 11058B   26194.06098558  .00000348  00000+0  42399-4 0  9993
2 37839  19.9592 151.2304 0018498   2.9049  74.5783 14.13783158762692
SRMSAT                  
1 37841U 11058D   26194.22886302  .00000348  00000+0  45216-4 0  9997
2 37841  19.9713 261.8486 0011832 129.6886 263.2365 14.11580868761503
STRAND-1                
1 39090U 13009E   26193.46783720  .00000149  00000+0  64299-4 0  9999
2 39090  98.3932  13.0813 0009262 148.5894 211.5848 14.37177891700690
ZACUBE-1 (TSHEPISOSAT)  
1 39417U 13066B   26193.93520539  .00001450  00000+0  11530-3 0  9999
2 39417  97.8010 156.3996 0043901 162.4582 197.8170 15.01323430684592
GOMX-1                  
1 39430U 13066Q   26194.26473751  .00000808  00000+0  12783-3 0  9991
2 39430  97.6476  33.0821 0128457 354.4286   5.5484 14.69539924673741
